[Satellite]
VERSION=1.1
NAME=GLOBALSTAR M089 [+]
NICKNAME=GLOBALSTAR M089 [+]
TLE1=1 37744U 11033F   15055.21599139 -.00000091  00000-0  73839-4 0  9993
TLE2=2 37744  51.9923 128.2240 0000867 127.3647 267.7482 12.62269435169345
